[{"OBJECT_NAME":"STARLINK-4471","OBJECT_ID":"2022-105S","EPOCH":"2026-03-09T15:48:04.716288","MEAN_MOTION":15.0562915,"ECCENTRICITY":0.00019386,"INCLINATION":97.6033,"RA_OF_ASC_NODE":311.1471,"ARG_OF_PERICENTER":80.1589,"MEAN_ANOMALY":279.9856,"EPHEMERIS_TYPE":0,"CLASSIFICATION_TYPE":"U","NORAD_CAT_ID":53664,"ELEMENT_SET_NO":999,"REV_AT_EPOCH":19329,"BSTAR":-0.00016140051,"MEAN_MOTION_DOT":-2.388e-5,"MEAN_MOTION_DDOT":0},{"OBJECT_NAME":"CZ-4B DEB","OBJECT_ID":"2008-053J","EPOCH":"2026-03-09T11:59:22.469568","MEAN_MOTION":15.1637526,"ECCENTRICITY":0.00601661,"INCLINATION":97.7872,"RA_OF_ASC_NODE":170.5072,"ARG_OF_PERICENTER":304.792,"MEAN_ANOMALY":54.7659,"EPHEMERIS_TYPE":0,"CLASSIFICATION_TYPE":"U","NORAD_CAT_ID":35573,"ELEMENT_SET_NO":999,"REV_AT_EPOCH":91868,"BSTAR":0.0017688276,"MEAN_MOTION_DOT":0.00036031,"MEAN_MOTION_DDOT":0}]
